ONEWEB-0721             
1 56725U 23068R   25288.60764549  .00000205  00000+0  45645-3 0  9993
2 56725  86.6845 163.5117 0001598  75.5405 284.5906 13.22448267125615
ONEWEB-0015             
1 61594U 24188A   25288.47313034  .00000372  00000+0  10128-2 0  9993
2 61594  87.8817  69.8374 0001437  74.1835 285.9451 13.11415728 52381
ONEWEB-0687             
1 61595U 24188B   25288.64038916  .00000118  00000+0  27187-3 0  9998
2 61595  87.9089  54.5352 0002031  82.0521 278.0841 13.17651439 53690
ONEWEB-0688             
1 61596U 24188C   25288.59313572 -.00000065  00000+0 -20032-3 0  9992
2 61596  87.9093  54.5449 0001473  51.8777 308.2487 13.17650499 53685
ONEWEB-0689             
1 61597U 24188D   25288.65962638 -.00000423  00000+0 -12302-2 0  9991
2 61597  87.8796  69.7445 0001929  89.8018 270.3331 13.11417367 52409
ONEWEB-0690             
1 61598U 24188E   25288.44090886 -.00000070  00000+0 -23311-3 0  9997
2 61598  87.8836  69.7828 0001275 122.0945 238.0307 13.11420222 52557
ONEWEB-0691             
1 61599U 24188F   25288.66471576 -.00000339  00000+0 -99269-3 0  9994
2 61599  87.8765  69.6700 0001378  82.5086 277.6199 13.11418117 52432
ONEWEB-0692             
1 61600U 24188G   25288.45617145  .00000476  00000+0  13072-2 0  9995
2 61600  87.8810  69.8371 0002551 106.2736 253.8673 13.11419891 52390
ONEWEB-0693             
1 61601U 24188H   25288.37712064  .00000033  00000+0  51910-4 0  9997
2 61601  87.9094  54.6065 0001036 120.7618 239.3615 13.17647100 53641
ONEWEB-0695             
1 61602U 24188J   25288.66132221 -.00000416  00000+0 -12089-2 0  9990
2 61602  87.8813  69.7839 0002230  93.5948 266.5435 13.11417735 52415
ONEWEB-0697             
1 61603U 24188K   25288.46466019  .00000518  00000+0  14253-2 0  9990
2 61603  87.8811  69.8139 0002413 107.1317 253.0076 13.11416433 52374
ONEWEB-0698             
1 61604U 24188L   25288.44260755 -.00000024  00000+0 -10238-3 0  9992
2 61604  87.8814  69.8328 0002191 126.9249 233.2080 13.11419201 52397
ONEWEB-0699             
1 61605U 24188M   25288.48973541  .00000136  00000+0  35465-3 0  9992
2 61605  87.8762  85.0395 0002193 105.3521 254.7849 13.10376246 51266
ONEWEB-0700             
1 61606U 24188N   25288.49138655  .00000061  00000+0  13961-3 0  9997
2 61606  87.8768  84.9215 0002397  90.4616 269.6786 13.10375972 51256
ONEWEB-0701             
1 61607U 24188P   25288.50800499  .00000651  00000+0  18297-2 0  9993
2 61607  87.8754  85.0385 0002372 106.5097 253.6292 13.10371675 51269
ONEWEB-0702             
1 61608U 24188Q   25288.64098317 -.00000124  00000+0 -38491-3 0  9993
2 61608  87.8763  69.7044 0002568 102.4240 257.7175 13.11416219 52433
ONEWEB-0704             
1 61609U 24188R   25288.49638434  .00000539  00000+0  15064-2 0  9995
2 61609  87.8775  84.9979 0002599  97.6235 262.5187 13.10375031 51246
